NORAD_CAT_ID,OBJECT_NAME,OBJECT_TYPE,EPOCH,MEAN_MOTION,ECCENTRICITY,INCLINATION,RA_OF_ASC_NODE,ARG_OF_PERICENTER,MEAN_ANOMALY,BSTAR,MEAN_MOTION_DOT,MEAN_MOTION_DDOT,TLE_LINE0,TLE_LINE1,TLE_LINE2,SEMIMAJOR_AXIS,PERIOD,APOGEE,PERIGEE,DECAYED
53971.0,STARLINK-4639,PAYLOAD,2023-07-31 07:06:20,15.08843727,0.0001154,53.2165,179.5372,91.3254,268.7871,0.0001253,1.707e-05,0.0,0 STARLINK-4639,1 53971U 22125H   23212.29607036  .00001707  00000-0  12530-3 0  9999,2 53971  53.2165 179.5372 0001154  91.3254 268.7871 15.08843727 45618,6917.869,95.437,540.532,538.936,0.0
53971.0,STARLINK-4639,PAYLOAD,2023-08-01 02:10:58,15.08836853,0.0001323,53.2171,175.9671,84.8662,275.2481,5.0965e-05,5.23e-06,0.0,0 STARLINK-4639,1 53971U 22125H   23213.09095814  .00000523  00000-0  50965-4 0  9993,2 53971  53.2171 175.9671 0001323  84.8662 275.2481 15.08836853 45730,6917.89,95.438,540.67,538.84,0.0
53971.0,STARLINK-4639,PAYLOAD,2023-08-02 06:47:54,15.0884595,0.0001347,53.2171,170.6139,81.1989,278.9155,0.00011399,1.527e-05,0.0,0 STARLINK-4639,1 53971U 22125H   23214.28327027  .00001527  00000-0  11399-3 0  9991,2 53971  53.2171 170.6139 0001347  81.1989 278.9155 15.08845950 45915,6917.862,95.437,540.659,538.795,0.0
53971.0,STARLINK-4639,PAYLOAD,2023-08-04 01:43:20,15.08838305,0.0001461,53.2174,162.5872,117.0812,243.033,-3.4466e-05,-8.36e-06,0.0,0 STARLINK-4639,1 53971U 22125H   23216.07175956 -.00000836  00000-0 -34466-4 0  9997,2 53971  53.2174 162.5872 0001461 117.0812 243.0330 15.08838305 46187,6917.886,95.438,540.761,538.74,0.0
53971.0,STARLINK-4639,PAYLOAD,2023-08-05 01:34:06,15.08843728,0.0001252,53.2165,158.126,103.9103,256.2028,9.4897e-05,1.223e-05,0.0,0 STARLINK-4639,1 53971U 22125H   23217.06535505  .00001223  00000-0  94897-4 0  9990,2 53971  53.2165 158.1260 0001252 103.9103 256.2028 15.08843728 46336,6917.869,95.437,540.6,538.868,0.0
53971.0,STARLINK-4639,PAYLOAD,2023-08-06 03:00:16,15.08851928,0.0001086,53.2154,153.3694,93.5446,266.5671,0.0002598,3.851e-05,0.0,0 STARLINK-4639,1 53971U 22125H   23218.12519041  .00003851  00000-0  25980-3 0  9990,2 53971  53.2154 153.3694 0001086  93.5446 266.5671 15.08851928 46497,6917.844,95.437,540.46,538.958,0.0
53971.0,STARLINK-4639,PAYLOAD,2023-08-06 12:32:35,15.08843832,0.0001058,53.2156,151.5878,92.6507,267.4606,9.1805e-05,1.174e-05,0.0,0 STARLINK-4639,1 53971U 22125H   23218.52263328  .00001174  00000-0  91805-4 0  9994,2 53971  53.2156 151.5878 0001058  92.6507 267.4606 15.08843832 46550,6917.869,95.437,540.466,539.002,0.0
53971.0,STARLINK-4639,PAYLOAD,2023-08-07 01:15:42,15.08824701,0.0001348,53.2176,149.2095,106.6979,253.4161,-0.00012415,-2.262e-05,0.0,0 STARLINK-4639,1 53971U 22125H   23219.05257650 -.00002262  00000-0 -12415-3 0  9994,2 53971  53.2176 149.2095 0001348 106.6979 253.4161 15.08824701 46632,6917.927,95.439,540.725,538.86,0.0
53971.0,STARLINK-4639,PAYLOAD,2023-08-07 18:44:56,15.08837174,0.0001142,53.2163,145.935,91.0825,269.0297,-1.2566e-05,-4.88e-06,0.0,0 STARLINK-4639,1 53971U 22125H   23219.78120527 -.00000488  00000-0 -12566-4 0  9992,2 53971  53.2163 145.9350 0001142  91.0825 269.0297 15.08837174 46747,6917.889,95.438,540.544,538.964,0.0
53971.0,STARLINK-4639,PAYLOAD,2023-08-07 23:31:05,15.08847158,0.0001082,53.2155,145.0438,92.9544,267.1571,0.00018859,2.715e-05,0.0,0 STARLINK-4639,1 53971U 22125H   23219.97992076  .00002715  00000-0  18859-3 0  9992,2 53971  53.2155 145.0438 0001082  92.9544 267.1571 15.08847158 46777,6917.859,95.437,540.472,538.975,0.0
53971.0,STARLINK-4639,PAYLOAD,2023-08-08 12:14:10,15.08845333,0.0001198,53.2148,142.6651,84.1649,275.948,0.00048865,7.499e-05,0.0,0 STARLINK-4639,1 53971U 22125H   23220.50984642  .00007499  00000-0  48865-3 0  9997,2 53971  53.2148 142.6651 0001198  84.1649 275.9480 15.08845333 46854,6917.864,95.437,540.558,538.9,0.0
53971.0,STARLINK-4639,PAYLOAD,2023-08-09 16:51:06,15.08858287,0.0001144,53.2149,137.3116,88.3153,271.797,0.00048217,7.398e-05,0.0,0 STARLINK-4639,1 53971U 22125H   23221.70215867  .00007398  00000-0  48217-3 0  9995,2 53971  53.2149 137.3116 0001144  88.3153 271.7970 15.08858287 47030,6917.824,95.436,540.481,538.898,0.0
53971.0,STARLINK-4639,PAYLOAD,2023-08-10 02:23:25,15.08848846,0.0001224,53.2158,135.5262,107.2726,252.84,0.00010192,1.335e-05,0.0,0 STARLINK-4639,1 53971U 22125H   23222.09959932  .00001335  00000-0  10192-3 0  9992,2 53971  53.2158 135.5262 0001224 107.2726 252.8400 15.08848846 47092,6917.853,95.437,540.565,538.872,0.0
53971.0,STARLINK-4639,PAYLOAD,2023-08-11 03:49:35,15.08844743,0.000149,53.2138,130.769,95.0458,265.0704,0.00010599,1.399e-05,0.0,0 STARLINK-4639,1 53971U 22125H   23223.15944027  .00001399  00000-0  10599-3 0  9990,2 53971  53.2138 130.7690 0001490  95.0458 265.0704 15.08844743 47256,6917.866,95.437,540.762,538.7,0.0
53971.0,STARLINK-4639,PAYLOAD,2023-08-12 02:04:59,15.08842594,0.0001112,53.2162,126.6062,99.9289,260.1828,6.2762e-05,7.11e-06,0.0,0 STARLINK-4639,1 53971U 22125H   23224.08680096  .00000711  00000-0  62762-4 0  9993,2 53971  53.2162 126.6062 0001112  99.9289 260.1828 15.08842594 47396,6917.872,95.437,540.507,538.968,0.0
53971.0,STARLINK-4639,PAYLOAD,2023-08-13 01:55:46,15.08839727,0.0001457,53.2147,122.1468,92.3354,267.7805,6.4939e-05,7.46e-06,0.0,0 STARLINK-4639,1 53971U 22125H   23225.08040491  .00000746  00000-0  64939-4 0  9999,2 53971  53.2147 122.1468 0001457  92.3354 267.7805 15.08839727 47541,6917.881,95.438,540.754,538.738,0.0
53971.0,STARLINK-4639,PAYLOAD,2023-08-15 00:01:58,15.08842244,0.0001326,53.2165,113.5237,89.015,271.0994,0.00010661,1.409e-05,0.0,0 STARLINK-4639,1 53971U 22125H   23227.00136843  .00001409  00000-0  10661-3 0  9999,2 53971  53.2165 113.5237 0001326  89.0150 271.0994 15.08842244 47838,6917.874,95.437,540.656,538.821,0.0
53971.0,STARLINK-4639,PAYLOAD,2023-08-16 01:28:08,15.08847186,0.0001315,53.2175,108.7658,87.5497,272.5646,0.00012899,1.766e-05,0.0,0 STARLINK-4639,1 53971U 22125H   23228.06120677  .00001766  00000-0  12899-3 0  9995,2 53971  53.2175 108.7658 0001315  87.5497 272.5646 15.08847186 47994,6917.858,95.437,540.633,538.814,0.0
53971.0,STARLINK-4639,PAYLOAD,2023-08-16 15:46:36,15.08843075,0.0001445,53.2175,106.0915,76.0029,284.1124,5.3812e-05,5.69e-06,0.0,0 STARLINK-4639,1 53971U 22125H   23228.65737149  .00000569  00000-0  53812-4 0  9999,2 53971  53.2175 106.0915 0001445  76.0029 284.1124 15.08843075 48083,6917.871,95.437,540.736,538.736,0.0
53971.0,STARLINK-4639,PAYLOAD,2023-08-17 01:18:55,15.08847968,0.0001432,53.2167,104.3078,74.1698,285.9452,8.4235e-05,1.053e-05,0.0,0 STARLINK-4639,1 53971U 22125H   23229.05480619  .00001053  00000-0  84235-4 0  9993,2 53971  53.2167 104.3078 0001432  74.1698 285.9452 15.08847968 48147,6917.856,95.437,540.712,538.73,0.0
53971.0,STARLINK-4639,PAYLOAD,2023-08-18 01:09:42,15.08842555,0.0001665,53.215,99.8454,85.0893,275.0289,0.0001023,1.341e-05,0.0,0 STARLINK-4639,1 53971U 22125H   23230.04840734  .00001341  00000-0  10230-3 0  9995,2 53971  53.2150  99.8454 0001665  85.0893 275.0289 15.08842555 48292,6917.873,95.437,540.889,538.586,0.0
53971.0,STARLINK-4639,PAYLOAD,2023-08-19 01:00:30,15.08836012,0.0001568,53.2163,95.3828,90.9304,269.1868,-6.8676e-06,-3.97e-06,0.0,0 STARLINK-4639,1 53971U 22125H   23231.04201403 -.00000397  00000-0 -68676-5 0  9991,2 53971  53.2163  95.3828 0001568  90.9304 269.1868 15.08836012 48441,6917.893,95.438,540.842,538.673,0.0
53971.0,STARLINK-4639,PAYLOAD,2023-08-20 18:20:31,15.08800463,0.0001475,53.2161,87.6523,85.1722,274.9438,0.00062113,9.601e-05,0.0,0 STARLINK-4639,1 53971U 22125H   23232.76425732  .00009601  00000-0  62113-3 0  9997,2 53971  53.2161  87.6523 0001475  85.1722 274.9438 15.08800463 48709,6918.001,95.44,540.887,538.846,0.0
53971.0,STARLINK-4639,PAYLOAD,2023-08-20 23:06:40,15.08844341,0.0001448,53.2174,86.7599,93.0597,267.0561,0.00017058,2.428e-05,0.0,0 STARLINK-4639,1 53971U 22125H   23232.96296865  .00002428  00000-0  17058-3 0  9990,2 53971  53.2174  86.7599 0001448  93.0597 267.0561 15.08844341 48730,6917.867,95.437,540.734,538.73,0.0
53971.0,STARLINK-4639,PAYLOAD,2023-08-21 07:03:37,15.08831482,0.0001691,53.2168,85.2734,85.5728,274.5457,3.0395e-05,1.96e-06,0.0,0 STARLINK-4639,1 53971U 22125H   23233.29418229  .00000196  00000-0  30395-4 0  9997,2 53971  53.2168  85.2734 0001691  85.5728 274.5457 15.08831482 48784,6917.906,95.438,540.941,538.602,0.0
53971.0,STARLINK-4639,PAYLOAD,2023-08-22 00:32:51,15.0883801,0.0001384,53.2163,82.0023,87.7543,272.3608,9.2629e-05,1.186e-05,0.0,0 STARLINK-4639,1 53971U 22125H   23234.02281729  .00001186  00000-0  92629-4 0  9990,2 53971  53.2163  82.0023 0001384  87.7543 272.3608 15.08838010 48893,6917.886,95.438,540.709,538.794,0.0
53971.0,STARLINK-4639,PAYLOAD,2023-08-24 12:57:30,15.0884222,0.0001545,53.2169,70.7035,80.5556,279.561,0.00013078,1.794e-05,0.0,0 STARLINK-4639,1 53971U 22125H   23236.53993993  .00001794  00000-0  13078-3 0  9996,2 53971  53.2169  70.7035 0001545  80.5556 279.5610 15.08842220 49206,6917.874,95.437,540.807,538.67,0.0
53971.0,STARLINK-4639,PAYLOAD,2023-08-25 19:09:50,15.08850798,0.0001207,53.2167,65.0511,87.5297,272.5833,0.0001628,2.305e-05,0.0,0 STARLINK-4639,1 53971U 22125H   23237.79849544  .00002305  00000-0  16280-3 0  9994,2 53971  53.2167  65.0511 0001207  87.5297 272.5833 15.08850798 49461,6917.847,95.437,540.547,538.877,0.0
53971.0,STARLINK-4639,PAYLOAD,2023-08-26 12:39:04,15.08840435,0.000137,53.217,61.7758,125.5892,234.5228,9.6352e-05,1.246e-05,0.0,0 STARLINK-4639,1 53971U 22125H   23238.52713885  .00001246  00000-0  96352-4 0  9996,2 53971  53.2170  61.7758 0001370 125.5892 234.5228 15.08840435 49504,6917.879,95.438,540.692,538.796,0.0
53971.0,STARLINK-4639,PAYLOAD,2023-08-26 17:25:14,15.08843966,0.0001412,53.2166,60.8858,114.221,245.893,0.00015176,2.128e-05,0.0,0 STARLINK-4639,1 53971U 22125H   23238.72585781  .00002128  00000-0  15176-3 0  9994,2 53971  53.2166  60.8858 0001412 114.2210 245.8930 15.08843966 49604,6917.868,95.437,540.71,538.756,0.0
